ONEWEB-0063             
1 45448U 20020AA  23361.58309548 -.00000369  00000+0 -10756-2 0  9996
2 45448  87.8960 200.4361 0001358  76.3529 283.7750 13.11415465184398
ONEWEB-0019             
1 45449U 20020AB  23361.63343069  .00000448  00000+0  12277-2 0  9995
2 45449  87.8965 200.4225 0001659  88.3950 271.7368 13.11417740184242
ONEWEB-0094             
1 45450U 20020AC  23361.88017724 -.00000121  00000+0 -34438-3 0  9994
2 45450  87.9148 185.2495 0001421  91.6524 268.4771 13.17647937187487
ONEWEB-0087             
1 45451U 20020AD  23361.58958941 -.00000574  00000+0 -16546-2 0  9998
2 45451  87.8954 200.4163 0001124  94.7539 265.3717 13.11417333184295
ONEWEB-0082             
1 45452U 20020AE  23361.59121327 -.00000548  00000+0 -15812-2 0  9996
2 45452  87.8968 200.4103 0001502  89.3413 270.7887 13.11417729184372
ONEWEB-0050             
1 45453U 20020AF  23361.69445533  .00007531  00000+0  59293-3 0  9995
2 45453  88.0012  72.0369 0022486 334.4557  25.5564 15.00485777205909
ONEWEB-0034             
1 45454U 20020AG  23361.61070391  .00000211  00000+0  56048-3 0  9997
2 45454  87.8971 200.4240 0001359  88.7361 271.3923 13.11418503184295
ONEWEB-0060             
1 45455U 20020AH  23361.61882345  .00000426  00000+0  11659-2 0  9994
2 45455  87.8964 200.4186 0001275  85.8412 274.2862 13.11417905184265
